STARLINK-37076          
1 68173U 26050G   26095.55271315  .00144006  00000+0  71867-3 0  9995
2 68173  53.1569 147.1629 0001503  62.6200 297.4976 15.80944282  4721
STARLINK-37078          
1 68174U 26050H   26095.55196144  .00174543  00000+0  86660-3 0  9998
2 68174  53.1565 147.1576 0001127  84.8785 275.2366 15.80960335  4729
STARLINK-36886          
1 68175U 26050J   26095.55118290  .00056487  00000+0  28680-3 0  9999
2 68175  53.1570 147.1521 0000767 113.2357 246.8747 15.80953409  4728
STARLINK-36905          
1 68176U 26050K   26095.55046023  .00130423  00000+0  65184-3 0  9997
2 68176  53.1566 147.1473 0001682  33.5605 326.5524 15.80957445  4720
STARLINK-36668          
1 68177U 26050L   26095.58336806 -.01858836  00000+0 -13001-1 0  9999
2 68177  53.1590 146.9878 0001121  69.0958 115.4395 15.76722647  4761
STARLINK-36677          
1 68178U 26050M   26095.54896088  .00277908  00000+0  13588-2 0  9992
2 68178  53.1569 147.1365 0001737  79.1164 281.0054 15.80999597  4729
STARLINK-37052          
1 68179U 26050N   26095.54821217  .00163450  00000+0  81311-3 0  9991
2 68179  53.1567 147.1322 0001702  53.8079 306.3101 15.80951798  4722
STARLINK-37035          
1 68180U 26050P   26095.54746151  .00265007  00000+0  12986-2 0  9998
2 68180  53.1566 147.1268 0001198  82.6131 277.5028 15.80987296  4729
STARLINK-37032          
1 68181U 26050Q   26095.54670938  .00274958  00000+0  13448-2 0  9997
2 68181  53.1566 147.1221 0001281 101.5900 258.5267 15.81000038  4722
STARLINK-37082          
1 68182U 26050R   26095.54595960  .00271999  00000+0  13307-2 0  9995
2 68182  53.1566 147.1166 0001620  83.3505 276.7702 15.81002301  4727
STARLINK-37102          
1 68183U 26050S   26095.54521124  .00120655  00000+0  60428-3 0  9996
2 68183  53.1567 147.1118 0002013  64.4602 295.6629 15.80945568  4729
STARLINK-36964          
1 68184U 26050T   26095.54446033  .00117836  00000+0  59060-3 0  9999
2 68184  53.1567 147.1067 0001333  88.5567 271.5609 15.80940319  4724
