CCSDS_OMM_VERS = 2.0
CREATION_DATE  = 
ORIGINATOR     = 

OBJECT_NAME    = STARLINK-37076
OBJECT_ID      = 2026-050G
CENTER_NAME    = EARTH
REF_FRAME      = TEME
TIME_SYSTEM    = UTC
MEAN_ELEMENT_THEORY = SGP/SGP4

EPOCH          = 2026-04-05T13:15:54.416160
MEAN_MOTION    = 15.80944282
ECCENTRICITY   = .00015038
INCLINATION    = 53.1569
RA_OF_ASC_NODE = 147.1629
ARG_OF_PERICENTER = 62.6200
MEAN_ANOMALY   = 297.4976

EPHEMERIS_TYPE = 0
CLASSIFICATION_TYPE = U
NORAD_CAT_ID   = 68173
ELEMENT_SET_NO = 999
REV_AT_EPOCH   = 472
BSTAR          = .71866681E-3
MEAN_MOTION_DOT = .144006E-2
MEAN_MOTION_DDOT = 0

CCSDS_OMM_VERS = 2.0
CREATION_DATE  = 
ORIGINATOR     = 

OBJECT_NAME    = STARLINK-37078
OBJECT_ID      = 2026-050H
CENTER_NAME    = EARTH
REF_FRAME      = TEME
TIME_SYSTEM    = UTC
MEAN_ELEMENT_THEORY = SGP/SGP4

EPOCH          = 2026-04-05T13:14:49.468416
MEAN_MOTION    = 15.80960335
ECCENTRICITY   = .00011274
INCLINATION    = 53.1565
RA_OF_ASC_NODE = 147.1576
ARG_OF_PERICENTER = 84.8785
MEAN_ANOMALY   = 275.2366

EPHEMERIS_TYPE = 0
CLASSIFICATION_TYPE = U
NORAD_CAT_ID   = 68174
ELEMENT_SET_NO = 999
REV_AT_EPOCH   = 472
BSTAR          = .86660413E-3
MEAN_MOTION_DOT = .174543E-2
MEAN_MOTION_DDOT = 0

CCSDS_OMM_VERS = 2.0
CREATION_DATE  = 
ORIGINATOR     = 

OBJECT_NAME    = STARLINK-36886
OBJECT_ID      = 2026-050J
CENTER_NAME    = EARTH
REF_FRAME      = TEME
TIME_SYSTEM    = UTC
MEAN_ELEMENT_THEORY = SGP/SGP4

EPOCH          = 2026-04-05T13:13:42.202560
MEAN_MOTION    = 15.80953409
ECCENTRICITY   = .00007678
INCLINATION    = 53.1570
RA_OF_ASC_NODE = 147.1521
ARG_OF_PERICENTER = 113.2357
MEAN_ANOMALY   = 246.8747

EPHEMERIS_TYPE = 0
CLASSIFICATION_TYPE = U
NORAD_CAT_ID   = 68175
ELEMENT_SET_NO = 999
REV_AT_EPOCH   = 472
BSTAR          = .28679761E-3
MEAN_MOTION_DOT = .56487E-3
MEAN_MOTION_DDOT = 0

CCSDS_OMM_VERS = 2.0
CREATION_DATE  = 
ORIGINATOR     = 

OBJECT_NAME    = STARLINK-36905
OBJECT_ID      = 2026-050K
CENTER_NAME    = EARTH
REF_FRAME      = TEME
TIME_SYSTEM    = UTC
MEAN_ELEMENT_THEORY = SGP/SGP4

EPOCH          = 2026-04-05T13:12:39.763872
MEAN_MOTION    = 15.80957445
ECCENTRICITY   = .00016829
INCLINATION    = 53.1566
RA_OF_ASC_NODE = 147.1473
ARG_OF_PERICENTER = 33.5605
MEAN_ANOMALY   = 326.5524

EPHEMERIS_TYPE = 0
CLASSIFICATION_TYPE = U
NORAD_CAT_ID   = 68176
ELEMENT_SET_NO = 999
REV_AT_EPOCH   = 472
BSTAR          = .65183776E-3
MEAN_MOTION_DOT = .130423E-2
MEAN_MOTION_DDOT = 0

CCSDS_OMM_VERS = 2.0
CREATION_DATE  = 
ORIGINATOR     = 

OBJECT_NAME    = STARLINK-36668
OBJECT_ID      = 2026-050L
CENTER_NAME    = EARTH
REF_FRAME      = TEME
TIME_SYSTEM    = UTC
MEAN_ELEMENT_THEORY = SGP/SGP4

EPOCH          = 2026-04-05T14:00:03.000384
MEAN_MOTION    = 15.76722647
ECCENTRICITY   = .00011211
INCLINATION    = 53.1590
RA_OF_ASC_NODE = 146.9878
ARG_OF_PERICENTER = 69.0958
MEAN_ANOMALY   = 115.4395

EPHEMERIS_TYPE = 0
CLASSIFICATION_TYPE = U
NORAD_CAT_ID   = 68177
ELEMENT_SET_NO = 999
REV_AT_EPOCH   = 476
BSTAR          = -.13000945E-1
MEAN_MOTION_DOT = -.1858836E-1
MEAN_MOTION_DDOT = 0

CCSDS_OMM_VERS = 2.0
CREATION_DATE  = 
ORIGINATOR     = 

OBJECT_NAME    = STARLINK-36677
OBJECT_ID      = 2026-050M
CENTER_NAME    = EARTH
REF_FRAME      = TEME
TIME_SYSTEM    = UTC
MEAN_ELEMENT_THEORY = SGP/SGP4

EPOCH          = 2026-04-05T13:10:30.220032
MEAN_MOTION    = 15.80999597
ECCENTRICITY   = .00017377
INCLINATION    = 53.1569
RA_OF_ASC_NODE = 147.1365
ARG_OF_PERICENTER = 79.1164
MEAN_ANOMALY   = 281.0054

EPHEMERIS_TYPE = 0
CLASSIFICATION_TYPE = U
NORAD_CAT_ID   = 68178
ELEMENT_SET_NO = 999
REV_AT_EPOCH   = 472
BSTAR          = .13587825E-2
MEAN_MOTION_DOT = .277908E-2
MEAN_MOTION_DDOT = 0

CCSDS_OMM_VERS = 2.0
CREATION_DATE  = 
ORIGINATOR     = 

OBJECT_NAME    = STARLINK-37052
OBJECT_ID      = 2026-050N
CENTER_NAME    = EARTH
REF_FRAME      = TEME
TIME_SYSTEM    = UTC
MEAN_ELEMENT_THEORY = SGP/SGP4

EPOCH          = 2026-04-05T13:09:25.531488
MEAN_MOTION    = 15.80951798
ECCENTRICITY   = .00017028
INCLINATION    = 53.1567
RA_OF_ASC_NODE = 147.1322
ARG_OF_PERICENTER = 53.8079
MEAN_ANOMALY   = 306.3101

EPHEMERIS_TYPE = 0
CLASSIFICATION_TYPE = U
NORAD_CAT_ID   = 68179
ELEMENT_SET_NO = 999
REV_AT_EPOCH   = 472
BSTAR          = .81310531E-3
MEAN_MOTION_DOT = .16345E-2
MEAN_MOTION_DDOT = 0

CCSDS_OMM_VERS = 2.0
CREATION_DATE  = 
ORIGINATOR     = 

OBJECT_NAME    = STARLINK-37035
OBJECT_ID      = 2026-050P
CENTER_NAME    = EARTH
REF_FRAME      = TEME
TIME_SYSTEM    = UTC
MEAN_ELEMENT_THEORY = SGP/SGP4

EPOCH          = 2026-04-05T13:08:20.674464
MEAN_MOTION    = 15.80987296
ECCENTRICITY   = .00011988
INCLINATION    = 53.1566
RA_OF_ASC_NODE = 147.1268
ARG_OF_PERICENTER = 82.6131
MEAN_ANOMALY   = 277.5028

EPHEMERIS_TYPE = 0
CLASSIFICATION_TYPE = U
NORAD_CAT_ID   = 68180
ELEMENT_SET_NO = 999
REV_AT_EPOCH   = 472
BSTAR          = .12985547E-2
MEAN_MOTION_DOT = .265007E-2
MEAN_MOTION_DDOT = 0

CCSDS_OMM_VERS = 2.0
CREATION_DATE  = 
ORIGINATOR     = 

OBJECT_NAME    = STARLINK-37032
OBJECT_ID      = 2026-050Q
CENTER_NAME    = EARTH
REF_FRAME      = TEME
TIME_SYSTEM    = UTC
MEAN_ELEMENT_THEORY = SGP/SGP4

EPOCH          = 2026-04-05T13:07:15.690432
MEAN_MOTION    = 15.81000038
ECCENTRICITY   = .00012812
INCLINATION    = 53.1566
RA_OF_ASC_NODE = 147.1221
ARG_OF_PERICENTER = 101.5900
MEAN_ANOMALY   = 258.5267

EPHEMERIS_TYPE = 0
CLASSIFICATION_TYPE = U
NORAD_CAT_ID   = 68181
ELEMENT_SET_NO = 999
REV_AT_EPOCH   = 472
BSTAR          = .13448302E-2
MEAN_MOTION_DOT = .274958E-2
MEAN_MOTION_DDOT = 0

CCSDS_OMM_VERS = 2.0
CREATION_DATE  = 
ORIGINATOR     = 

OBJECT_NAME    = STARLINK-37082
OBJECT_ID      = 2026-050R
CENTER_NAME    = EARTH
REF_FRAME      = TEME
TIME_SYSTEM    = UTC
MEAN_ELEMENT_THEORY = SGP/SGP4

EPOCH          = 2026-04-05T13:06:10.909440
MEAN_MOTION    = 15.81002301
ECCENTRICITY   = .00016206
INCLINATION    = 53.1566
RA_OF_ASC_NODE = 147.1166
ARG_OF_PERICENTER = 83.3505
MEAN_ANOMALY   = 276.7702

EPHEMERIS_TYPE = 0
CLASSIFICATION_TYPE = U
NORAD_CAT_ID   = 68182
ELEMENT_SET_NO = 999
REV_AT_EPOCH   = 472
BSTAR          = .13307198E-2
MEAN_MOTION_DOT = .271999E-2
MEAN_MOTION_DDOT = 0

CCSDS_OMM_VERS = 2.0
CREATION_DATE  = 
ORIGINATOR     = 

OBJECT_NAME    = STARLINK-37102
OBJECT_ID      = 2026-050S
CENTER_NAME    = EARTH
REF_FRAME      = TEME
TIME_SYSTEM    = UTC
MEAN_ELEMENT_THEORY = SGP/SGP4

EPOCH          = 2026-04-05T13:05:06.251136
MEAN_MOTION    = 15.80945568
ECCENTRICITY   = .00020139
INCLINATION    = 53.1567
RA_OF_ASC_NODE = 147.1118
ARG_OF_PERICENTER = 64.4602
MEAN_ANOMALY   = 295.6629

EPHEMERIS_TYPE = 0
CLASSIFICATION_TYPE = U
NORAD_CAT_ID   = 68183
ELEMENT_SET_NO = 999
REV_AT_EPOCH   = 472
BSTAR          = .60427868E-3
MEAN_MOTION_DOT = .120655E-2
MEAN_MOTION_DDOT = 0

CCSDS_OMM_VERS = 2.0
CREATION_DATE  = 
ORIGINATOR     = 

OBJECT_NAME    = STARLINK-36964
OBJECT_ID      = 2026-050T
CENTER_NAME    = EARTH
REF_FRAME      = TEME
TIME_SYSTEM    = UTC
MEAN_ELEMENT_THEORY = SGP/SGP4

EPOCH          = 2026-04-05T13:04:01.372512
MEAN_MOTION    = 15.80940319
ECCENTRICITY   = .00013331
INCLINATION    = 53.1567
RA_OF_ASC_NODE = 147.1067
ARG_OF_PERICENTER = 88.5567
MEAN_ANOMALY   = 271.5609

EPHEMERIS_TYPE = 0
CLASSIFICATION_TYPE = U
NORAD_CAT_ID   = 68184
ELEMENT_SET_NO = 999
REV_AT_EPOCH   = 472
BSTAR          = .59060224E-3
MEAN_MOTION_DOT = .117836E-2
MEAN_MOTION_DDOT = 0

